STARLINK-30856          
1 58725U 24002W   26068.73855204  .00002836  00000+0  10781-3 0  9999
2 58725  53.1591 229.6448 0001028  91.3394 268.7724 15.30210221122028
NUSAT-49 (KLARA DAN VO*)
1 60500U 24149AJ  26068.79810190  .00012912  00000+0  43568-3 0  9991
2 60500  97.3807 150.7380 0001132 286.7761  73.3356 15.30828857 86935
